NORAD_CAT_ID,OBJECT_NAME,OBJECT_TYPE,EPOCH,MEAN_MOTION,ECCENTRICITY,INCLINATION,RA_OF_ASC_NODE,ARG_OF_PERICENTER,MEAN_ANOMALY,BSTAR,MEAN_MOTION_DOT,MEAN_MOTION_DDOT,TLE_LINE0,TLE_LINE1,TLE_LINE2,SEMIMAJOR_AXIS,PERIOD,APOGEE,PERIGEE,DECAYED
56462.0,STARLINK-6045,PAYLOAD,2024-06-15 14:07:44,14.98336891,0.0003089,69.9996,258.0267,269.2384,90.8421,4.9475e-05,4.97e-06,0.0,0 STARLINK-6045,1 56462U 23064Q   24167.58870447  .00000497  00000-0  49475-4 0  9994,2 56462  69.9996 258.0267 0003089 269.2384  90.8421 14.98336891 61550,6950.172,96.107,574.183,569.89,0.0
56462.0,STARLINK-6045,PAYLOAD,2024-06-15 15:43:52,14.98336949,0.0003089,69.9996,257.8584,269.2724,90.8081,4.9632e-05,4.99e-06,0.0,0 STARLINK-6045,1 56462U 23064Q   24167.65546416  .00000499  00000-0  49632-4 0  9995,2 56462  69.9996 257.8584 0003089 269.2724  90.8081 14.98336949 61564,6950.171,96.107,574.183,569.889,0.0
56462.0,STARLINK-6045,PAYLOAD,2024-06-16 14:09:45,14.98328311,0.0003189,69.9992,255.5019,270.7301,89.3492,2.7331e-05,2.33e-06,0.0,0 STARLINK-6045,1 56462U 23064Q   24168.59010977  .00000233  00000-0  27331-4 0  9995,2 56462  69.9992 255.5019 0003189 270.7301  89.3492 14.98328311 61706,6950.198,96.107,574.28,569.847,0.0
56462.0,STARLINK-6045,PAYLOAD,2024-06-16 15:45:53,14.98328831,0.0003185,69.9992,255.3336,270.7146,89.3648,3.2371e-05,2.93e-06,0.0,0 STARLINK-6045,1 56462U 23064Q   24168.65686933  .00000293  00000-0  32371-4 0  9999,2 56462  69.9992 255.3336 0003185 270.7146  89.3648 14.98328831 61710,6950.197,96.107,574.275,569.848,0.0
56462.0,STARLINK-6045,PAYLOAD,2024-06-17 15:47:54,14.98330238,0.0003004,69.9994,252.8084,267.6944,92.3871,-4.1764e-05,-5.91e-06,0.0,0 STARLINK-6045,1 56462U 23064Q   24169.65827140 -.00000591  00000-0 -41764-4 0  9996,2 56462  69.9994 252.8084 0003004 267.6944  92.3871 14.98330238 61867,6950.192,96.107,574.145,569.969,0.0
56462.0,STARLINK-6045,PAYLOAD,2024-06-18 12:37:39,14.98332463,0.0003109,69.9992,250.6203,272.0699,88.0104,6.4476e-05,6.76e-06,0.0,0 STARLINK-6045,1 56462U 23064Q   24170.52614622  .00000676  00000-0  64476-4 0  9990,2 56462  69.9992 250.6203 0003109 272.0699  88.0104 14.98332463 62355,6950.185,96.107,574.211,569.889,0.0
56462.0,STARLINK-6045,PAYLOAD,2024-06-18 14:13:47,14.98332964,0.0003103,69.9992,250.452,272.0659,88.0145,6.9056e-05,7.31e-06,0.0,0 STARLINK-6045,1 56462U 23064Q   24170.59290566  .00000731  00000-0  69056-4 0  9995,2 56462  69.9992 250.4520 0003103 272.0659  88.0145 14.98332964 62008,6950.184,96.107,574.205,569.892,0.0
56462.0,STARLINK-6045,PAYLOAD,2024-06-18 22:14:27,14.98329589,0.0003066,69.9994,249.6103,272.6675,87.4133,4.0129e-05,3.86e-06,0.0,0 STARLINK-6045,1 56462U 23064Q   24170.92670797  .00000386  00000-0  40129-4 0  9996,2 56462  69.9994 249.6103 0003066 272.6675  87.4133 14.98329589 62053,6950.194,96.107,574.19,569.928,0.0
56462.0,STARLINK-6045,PAYLOAD,2024-06-19 12:39:40,14.98328594,0.0003049,69.9993,248.0962,268.316,91.765,1.6136e-05,1e-06,0.0,0 STARLINK-6045,1 56462U 23064Q   24171.52754917  .00000100  00000-0  16136-4 0  9995,2 56462  69.9993 248.0962 0003049 268.3160  91.7650 14.98328594 62507,6950.197,96.107,574.181,569.943,0.0
56462.0,STARLINK-6045,PAYLOAD,2024-06-19 14:15:48,14.98328496,0.0003051,69.9993,247.9278,268.3032,91.7777,1.4215e-05,7.7e-07,0.0,0 STARLINK-6045,1 56462U 23064Q   24171.59430929  .00000077  00000-0  14215-4 0  9995,2 56462  69.9993 247.9278 0003051 268.3032  91.7777 14.98328496 62158,6950.198,96.107,574.183,569.942,0.0
56462.0,STARLINK-6045,PAYLOAD,2024-06-19 15:51:56,14.98329702,0.0003045,69.9993,247.7595,268.208,91.873,2.6332e-05,2.21e-06,0.0,0 STARLINK-6045,1 56462U 23064Q   24171.66106820  .00000221  00000-0  26332-4 0  9997,2 56462  69.9993 247.7595 0003045 268.2080  91.8730 14.98329702 62165,6950.194,96.107,574.175,569.942,0.0
56462.0,STARLINK-6045,PAYLOAD,2024-06-20 14:17:48,14.98338389,0.0003098,69.9992,245.4024,267.7238,92.3567,2.1332e-05,1.62e-06,0.0,0 STARLINK-6045,1 56462U 23064Q   24172.59570023  .00000162  00000-0  21332-4 0  9999,2 56462  69.9992 245.4024 0003098 267.7238  92.3567 14.98338389 62304,6950.167,96.106,574.185,569.879,0.0
56462.0,STARLINK-6045,PAYLOAD,2024-06-21 04:43:01,14.98327025,0.0003111,69.9989,243.8876,268.7373,91.3429,-1.6254e-05,-2.87e-06,0.0,0 STARLINK-6045,1 56462U 23064Q   24173.19654710 -.00000287  00000-0 -16254-4 0  9999,2 56462  69.9989 243.8876 0003111 268.7373  91.3429 14.98327025 62754,6950.202,96.107,574.229,569.905,0.0
56462.0,STARLINK-6045,PAYLOAD,2024-06-21 14:19:50,14.98327542,0.0003162,69.999,242.8771,267.6341,92.4456,-2.5729e-05,-4e-06,0.0,0 STARLINK-6045,1 56462U 23064Q   24173.59710742 -.00000400  00000-0 -25729-4 0  9995,2 56462  69.9990 242.8771 0003162 267.6341  92.4456 14.98327542 62451,6950.2,96.107,574.263,569.868,0.0
56462.0,STARLINK-6045,PAYLOAD,2024-06-22 04:45:02,14.9833144,0.0003176,69.999,241.3615,267.4006,92.679,-6.6238e-05,-8.83e-06,0.0,0 STARLINK-6045,1 56462U 23064Q   24174.19794659 -.00000883  00000-0 -66238-4 0  9996,2 56462  69.9990 241.3615 0003176 267.4006  92.6790 14.98331440 62908,6950.188,96.107,574.261,569.846,0.0
56462.0,STARLINK-6045,PAYLOAD,2024-06-22 14:21:51,14.98329772,0.0003194,69.9991,240.3516,267.4455,92.6338,-7.0112e-05,-9.29e-06,0.0,0 STARLINK-6045,1 56462U 23064Q   24174.59850768 -.00000929  00000-0 -70112-4 0  9991,2 56462  69.9991 240.3516 0003194 267.4455  92.6338 14.98329772 62606,6950.194,96.107,574.278,569.839,0.0
56462.0,STARLINK-6045,PAYLOAD,2024-06-23 04:47:03,14.98329908,0.0003331,69.9988,238.8368,267.1364,92.9414,8.2024e-05,8.86e-06,0.0,0 STARLINK-6045,1 56462U 23064Q   24175.19934269  .00000886  00000-0  82024-4 0  9992,2 56462  69.9988 238.8368 0003331 267.1364  92.9414 14.98329908 63057,6950.193,96.107,574.373,569.743,0.0
56462.0,STARLINK-6045,PAYLOAD,2024-06-23 14:23:51,14.98333855,0.0003361,69.9988,237.8269,267.8477,92.2298,9.2151e-05,1.007e-05,0.0,0 STARLINK-6045,1 56462U 23064Q   24175.59989953  .00001007  00000-0  92151-4 0  9994,2 56462  69.9988 237.8269 0003361 267.8477  92.2298 14.98333855 62756,6950.181,96.107,574.382,569.71,0.0
56462.0,STARLINK-6045,PAYLOAD,2024-06-24 04:49:04,14.98331248,0.0003309,69.9989,236.3119,268.9943,91.0837,5.5977e-05,5.75e-06,0.0,0 STARLINK-6045,1 56462U 23064Q   24176.20074112  .00000575  00000-0  55977-4 0  9999,2 56462  69.9989 236.3119 0003309 268.9943  91.0837 14.98331248 63208,6950.189,96.107,574.354,569.754,0.0
56462.0,STARLINK-6045,PAYLOAD,2024-06-24 14:25:52,14.98332781,0.0003293,69.999,235.3021,269.3452,90.733,6.5632e-05,6.9e-06,0.0,0 STARLINK-6045,1 56462U 23064Q   24176.60129919  .00000690  00000-0  65632-4 0  9996,2 56462  69.9990 235.3021 0003293 269.3452  90.7330 14.98332781 62906,6950.184,96.107,574.338,569.761,0.0
56462.0,STARLINK-6045,PAYLOAD,2024-06-25 04:51:05,14.98329588,0.0003088,69.9995,233.7877,266.162,93.9186,-5.7494e-05,-7.79e-06,0.0,0 STARLINK-6045,1 56462U 23064Q   24177.20214393 -.00000779  00000-0 -57494-4 0  9991,2 56462  69.9995 233.7877 0003088 266.1620  93.9186 14.98329588 63351,6950.194,96.107,574.205,569.913,0.0
56462.0,STARLINK-6045,PAYLOAD,2024-06-25 12:51:45,14.98326246,0.0003165,69.9994,232.9462,266.6622,93.4175,-9.4197e-05,-1.217e-05,0.0,0 STARLINK-6045,1 56462U 23064Q   24177.53594720 -.00001217  00000-0 -94197-4 0  9991,2 56462  69.9994 232.9462 0003165 266.6622  93.4175 14.98326246 63041,6950.204,96.107,574.269,569.87,0.0
56462.0,STARLINK-6045,PAYLOAD,2024-06-26 04:53:05,14.98333438,0.0003303,69.9992,231.2631,265.7362,94.342,4.1642e-07,-8.8e-07,0.0,0 STARLINK-6045,1 56462U 23064Q   24178.20353908 -.00000088  00000-0  41642-6 0  9990,2 56462  69.9992 231.2631 0003303 265.7362  94.3420 14.98333438 63509,6950.182,96.107,574.343,569.752,0.0
56462.0,STARLINK-6045,PAYLOAD,2024-06-26 11:17:38,14.98332663,0.0003332,69.9991,230.5897,265.1957,94.8822,-8.3355e-06,-1.93e-06,0.0,0 STARLINK-6045,1 56462U 23064Q   24178.47057924 -.00000193  00000-0 -83355-5 0  9992,2 56462  69.9991 230.5897 0003332 265.1957  94.8822 14.98332663 63184,6950.185,96.107,574.365,569.734,0.0
56462.0,STARLINK-6045,PAYLOAD,2024-06-27 04:55:06,14.98328181,0.0003659,69.9985,228.7379,269.8984,90.1756,3.2635e-05,2.96e-06,0.0,0 STARLINK-6045,1 56462U 23064Q   24179.20494103  .00000296  00000-0  32635-4 0  9994,2 56462  69.9985 228.7379 0003659 269.8984  90.1756 14.98328181 63651,6950.199,96.107,574.607,569.52,0.0
56462.0,STARLINK-6045,PAYLOAD,2024-06-27 12:55:47,14.98326724,0.000358,69.9985,227.895,269.1592,90.9157,2.6658e-05,2.25e-06,0.0,0 STARLINK-6045,1 56462U 23064Q   24179.53874252  .00000225  00000-0  26658-4 0  9997,2 56462  69.9985 227.8950 0003580 269.1592  90.9157 14.98326724 63347,6950.203,96.107,574.556,569.58,0.0
56462.0,STARLINK-6045,PAYLOAD,2024-06-28 04:57:08,14.98328966,0.0003559,69.9985,226.2117,268.8741,91.201,-1.9e-05,-3.2e-06,0.0,0 STARLINK-6045,1 56462U 23064Q   24180.20634296 -.00000320  00000-0 -19000-4 0  9996,2 56462  69.9985 226.2117 0003559 268.8741  91.2010 14.98328966 63806,6950.196,96.107,574.535,569.588,0.0
56462.0,STARLINK-6045,PAYLOAD,2024-06-28 12:57:47,14.98333681,0.0003561,69.9984,225.371,269.7742,90.3009,3.358e-05,3.08e-06,0.0,0 STARLINK-6045,1 56462U 23064Q   24180.54013851  .00000308  00000-0  33580-4 0  9994,2 56462  69.9984 225.3710 0003561 269.7742  90.3009 14.98333681 63491,6950.182,96.107,574.521,569.572,0.0
56462.0,STARLINK-6045,PAYLOAD,2024-06-29 04:59:08,14.98328877,0.0003481,69.9986,223.6881,269.0798,90.9962,3.2854e-05,2.99e-06,0.0,0 STARLINK-6045,1 56462U 23064Q   24181.20774095  .00000299  00000-0  32854-4 0  9994,2 56462  69.9986 223.6881 0003481 269.0798  90.9962 14.98328877 63954,6950.196,96.107,574.481,569.642,0.0
56462.0,STARLINK-6045,PAYLOAD,2024-06-29 12:59:48,14.98332322,0.0003441,69.9986,222.8464,268.8521,91.2244,6.9571e-05,7.37e-06,0.0,0 STARLINK-6045,1 56462U 23064Q   24181.54153762  .00000737  00000-0  69571-4 0  9996,2 56462  69.9986 222.8464 0003441 268.8521  91.2244 14.98332322 63642,6950.186,96.107,574.442,569.659,0.0
